[{"OBJECT_NAME":"STARLINK-5099","OBJECT_ID":"2022-125AX","EPOCH":"2026-03-09T15:50:15.728064","MEAN_MOTION":15.08835519,"ECCENTRICITY":0.00011072,"INCLINATION":53.2168,"RA_OF_ASC_NODE":213.8605,"ARG_OF_PERICENTER":78.779,"MEAN_ANOMALY":281.3326,"EPHEMERIS_TYPE":0,"CLASSIFICATION_TYPE":"U","NORAD_CAT_ID":54009,"ELEMENT_SET_NO":999,"REV_AT_EPOCH":18946,"BSTAR":-3.2272557e-5,"MEAN_MOTION_DOT":-8.01e-6,"MEAN_MOTION_DDOT":0},{"OBJECT_NAME":"THORAD AGENA D DEB","OBJECT_ID":"1969-082Z","EPOCH":"2026-03-09T07:18:45.871776","MEAN_MOTION":15.11837328,"ECCENTRICITY":0.00204275,"INCLINATION":70.0067,"RA_OF_ASC_NODE":36.7332,"ARG_OF_PERICENTER":221.6463,"MEAN_ANOMALY":138.3149,"EPHEMERIS_TYPE":0,"CLASSIFICATION_TYPE":"U","NORAD_CAT_ID":4157,"ELEMENT_SET_NO":999,"REV_AT_EPOCH":97934,"BSTAR":0.0014373482,"MEAN_MOTION_DOT":0.00024719,"MEAN_MOTION_DDOT":0}]
